GLOBALSTAR M067 [+]     
1 32263U 07048A   23301.37395059 -.00000063  00000+0  25738-3 0  9992
2 32263  51.9748 345.1216 0001141 134.4279 239.2163 12.40633359735288
GLOBALSTAR M070 [+]     
1 32264U 07048B   23301.33592823 -.00000046  00000+0  32219-3 0  9990
2 32264  51.9727 149.7397 0000677 104.6092  66.4749 12.62281131738160
GLOBALSTAR M068 [-]     
1 32266U 07048D   23301.50679446 -.00000048  00000+0  30787-3 0  9998
2 32266  51.9893 324.1007 0000521 260.7007 263.0710 12.62769247742337
GLOBALSTAR M074 [+]     
1 37189U 10054B   23301.38830281 -.00000064  00000+0  22412-3 0  9994
2 37189  51.9994 158.9977 0000933  86.4068  85.0407 12.62271497601563
GLOBALSTAR M076 [+]     
1 37190U 10054C   23301.33554578 -.00000056  00000+0  26558-3 0  9999
2 37190  52.0008 159.2758 0001415  99.7072  71.3394 12.62262841601276
GLOBALSTAR M077 [+]     
1 37191U 10054D   23301.44685997 -.00000090  00000+0  74590-4 0  9990
2 37191  52.0049 115.6199 0000889 101.5244 274.6611 12.62268004601664
